[{"OBJECT_NAME":"COSMOS 2428","OBJECT_ID":"2007-029A","EPOCH":"2026-03-09T23:01:40.069056","MEAN_MOTION":14.1294624,"ECCENTRICITY":0.00091204,"INCLINATION":70.9433,"RA_OF_ASC_NODE":202.7763,"ARG_OF_PERICENTER":276.7113,"MEAN_ANOMALY":83.297,"EPHEMERIS_TYPE":0,"CLASSIFICATION_TYPE":"U","NORAD_CAT_ID":31792,"ELEMENT_SET_NO":999,"REV_AT_EPOCH":96413,"BSTAR":6.0875257e-5,"MEAN_MOTION_DOT":6.6e-7,"MEAN_MOTION_DDOT":0},{"OBJECT_NAME":"METEOR 1-14","OBJECT_ID":"1973-015A","EPOCH":"2026-03-09T23:35:58.101504","MEAN_MOTION":14.08090722,"ECCENTRICITY":0.00543092,"INCLINATION":81.2385,"RA_OF_ASC_NODE":24.421,"ARG_OF_PERICENTER":118.0269,"MEAN_ANOMALY":242.6409,"EPHEMERIS_TYPE":0,"CLASSIFICATION_TYPE":"U","NORAD_CAT_ID":6392,"ELEMENT_SET_NO":999,"REV_AT_EPOCH":71873,"BSTAR":0.0001591661,"MEAN_MOTION_DOT":2.88e-6,"MEAN_MOTION_DDOT":0}]
